[{"OBJECT_NAME":"STARLINK-2358","OBJECT_ID":"2021-021AQ","EPOCH":"2026-03-09T19:26:01.327776","MEAN_MOTION":15.30190168,"ECCENTRICITY":9.624e-5,"INCLINATION":53.1616,"RA_OF_ASC_NODE":267.5593,"ARG_OF_PERICENTER":68.7622,"MEAN_ANOMALY":291.3482,"EPHEMERIS_TYPE":0,"CLASSIFICATION_TYPE":"U","NORAD_CAT_ID":47898,"ELEMENT_SET_NO":999,"REV_AT_EPOCH":27621,"BSTAR":-5.3122824e-5,"MEAN_MOTION_DOT":-1.931e-5,"MEAN_MOTION_DDOT":0},{"OBJECT_NAME":"FREGAT DEB","OBJECT_ID":"2011-037DJ","EPOCH":"2026-03-09T05:46:54.234336","MEAN_MOTION":14.1723702,"ECCENTRICITY":0.05960905,"INCLINATION":51.3214,"RA_OF_ASC_NODE":17.6938,"ARG_OF_PERICENTER":2.2668,"MEAN_ANOMALY":358.0757,"EPHEMERIS_TYPE":0,"CLASSIFICATION_TYPE":"U","NORAD_CAT_ID":45889,"ELEMENT_SET_NO":999,"REV_AT_EPOCH":24920,"BSTAR":0.025332087,"MEAN_MOTION_DOT":0.00335975,"MEAN_MOTION_DDOT":0}]
